date:2024-08-30T03:18:52+00:00
validtle:
invalidtleinfo:Invalid TLE contents
timestamp:2024-08-30T03:18:52+00:00
TLE:
STARLINK-2329
1 47873U 21023P   24242.17207772  .00001148  00000+0  95998-4 0  9999
2 47873  53.0540 244.4129 0001461  84.7380 275.3776 15.06392623191821